HELIOS 2A               
1 28492U 04049A   22289.34006278  .00002547  00000+0  24777-3 0  9992
2 28492  98.2447 238.0816 0015309  48.4355 311.8190 14.93447093953167
CFESAT                  
1 30777U 07006F   22289.13285752  .00338439  00000+0  15754-2 0  9996
2 30777  35.4123 212.6958 0007952 241.4114 118.5826 15.81417333868006
SPIRALE A               
1 33751U 09008C   22288.65993214  .00000218  00000+0  79579-3 0  9997
2 33751   1.9852 140.1165 5450305 113.9089 311.3210  4.58875392200337
SPIRALE B               
1 33752U 09008D   22288.42652175  .00003560  00000+0  11810-2 0  9997
2 33752   2.2263  50.9854 6847560 280.3222  14.7956  2.83233378128476
SAPPHIRE                
1 39088U 13009C   22288.82196283  .00000131  00000+0  61861-4 0  9992
2 39088  98.4219 121.5547 0010251 280.3911  79.6119 14.34331828504370
